<?xml version="1.0" encoding="UTF-8"?>
<ndm xmlns:xsi="http://www.w3.org/2001/XMLSchema-instance" xsi:noNamespaceSchemaLocation="https://sanaregistry.org/r/ndmxml_unqualified/ndmxml-2.0.0-master-2.0.xsd">
<omm id="CCSDS_OMM_VERS" version="2.0">
<header><CREATION_DATE/><ORIGINATOR/></header><body><segment><metadata><OBJECT_NAME>ONEWEB-0683</OBJECT_NAME><OBJECT_ID>2023-068K</OBJECT_ID><CENTER_NAME>EARTH</CENTER_NAME><REF_FRAME>TEME</REF_FRAME><TIME_SYSTEM>UTC</TIME_SYSTEM><MEAN_ELEMENT_THEORY>SGP4</MEAN_ELEMENT_THEORY></metadata><data><meanElements><EPOCH>2024-11-22T17:06:22.576320</EPOCH><MEAN_MOTION>13.15545992</MEAN_MOTION><ECCENTRICITY>.0001709</ECCENTRICITY><INCLINATION>87.9096</INCLINATION><RA_OF_ASC_NODE>12.9455</RA_OF_ASC_NODE><ARG_OF_PERICENTER>107.0771</ARG_OF_PERICENTER><MEAN_ANOMALY>253.0546</MEAN_ANOMALY></meanElements><tleParameters><EPHEMERIS_TYPE>0</EPHEMERIS_TYPE><CLASSIFICATION_TYPE>U</CLASSIFICATION_TYPE><NORAD_CAT_ID>56719</NORAD_CAT_ID><ELEMENT_SET_NO>999</ELEMENT_SET_NO><REV_AT_EPOCH>7428</REV_AT_EPOCH><BSTAR>-.64055E-4</BSTAR><MEAN_MOTION_DOT>-.11E-6</MEAN_MOTION_DOT><MEAN_MOTION_DDOT>0</MEAN_MOTION_DDOT></tleParameters></data></segment></body></omm>
<omm id="CCSDS_OMM_VERS" version="2.0">
<header><CREATION_DATE/><ORIGINATOR/></header><body><segment><metadata><OBJECT_NAME>ONEWEB-0684</OBJECT_NAME><OBJECT_ID>2023-068L</OBJECT_ID><CENTER_NAME>EARTH</CENTER_NAME><REF_FRAME>TEME</REF_FRAME><TIME_SYSTEM>UTC</TIME_SYSTEM><MEAN_ELEMENT_THEORY>SGP4</MEAN_ELEMENT_THEORY></metadata><data><meanElements><EPOCH>2024-11-22T13:38:45.199680</EPOCH><MEAN_MOTION>13.15546531</MEAN_MOTION><ECCENTRICITY>.0001711</ECCENTRICITY><INCLINATION>87.9068</INCLINATION><RA_OF_ASC_NODE>13.0436</RA_OF_ASC_NODE><ARG_OF_PERICENTER>50.4651</ARG_OF_PERICENTER><MEAN_ANOMALY>309.6630</MEAN_ANOMALY></meanElements><tleParameters><EPHEMERIS_TYPE>0</EPHEMERIS_TYPE><CLASSIFICATION_TYPE>U</CLASSIFICATION_TYPE><NORAD_CAT_ID>56720</NORAD_CAT_ID><ELEMENT_SET_NO>999</ELEMENT_SET_NO><REV_AT_EPOCH>7409</REV_AT_EPOCH><BSTAR>.81972E-4</BSTAR><MEAN_MOTION_DOT>.44E-6</MEAN_MOTION_DOT><MEAN_MOTION_DDOT>0</MEAN_MOTION_DDOT></tleParameters></data></segment></body></omm>
<omm id="CCSDS_OMM_VERS" version="2.0">
<header><CREATION_DATE/><ORIGINATOR/></header><body><segment><metadata><OBJECT_NAME>ONEWEB-0686</OBJECT_NAME><OBJECT_ID>2023-068M</OBJECT_ID><CENTER_NAME>EARTH</CENTER_NAME><REF_FRAME>TEME</REF_FRAME><TIME_SYSTEM>UTC</TIME_SYSTEM><MEAN_ELEMENT_THEORY>SGP4</MEAN_ELEMENT_THEORY></metadata><data><meanElements><EPOCH>2024-11-22T14:16:09.616800</EPOCH><MEAN_MOTION>13.16593688</MEAN_MOTION><ECCENTRICITY>.0001458</ECCENTRICITY><INCLINATION>87.9081</INCLINATION><RA_OF_ASC_NODE>342.6953</RA_OF_ASC_NODE><ARG_OF_PERICENTER>96.7265</ARG_OF_PERICENTER><MEAN_ANOMALY>263.4032</MEAN_ANOMALY></meanElements><tleParameters><EPHEMERIS_TYPE>0</EPHEMERIS_TYPE><CLASSIFICATION_TYPE>U</CLASSIFICATION_TYPE><NORAD_CAT_ID>56721</NORAD_CAT_ID><ELEMENT_SET_NO>999</ELEMENT_SET_NO><REV_AT_EPOCH>7650</REV_AT_EPOCH><BSTAR>.11503E-3</BSTAR><MEAN_MOTION_DOT>.57E-6</MEAN_MOTION_DOT><MEAN_MOTION_DDOT>0</MEAN_MOTION_DDOT></tleParameters></data></segment></body></omm>
<omm id="CCSDS_OMM_VERS" version="2.0">
<header><CREATION_DATE/><ORIGINATOR/></header><body><segment><metadata><OBJECT_NAME>ONEWEB-0694</OBJECT_NAME><OBJECT_ID>2023-068N</OBJECT_ID><CENTER_NAME>EARTH</CENTER_NAME><REF_FRAME>TEME</REF_FRAME><TIME_SYSTEM>UTC</TIME_SYSTEM><MEAN_ELEMENT_THEORY>SGP4</MEAN_ELEMENT_THEORY></metadata><data><meanElements><EPOCH>2024-11-22T13:28:11.986176</EPOCH><MEAN_MOTION>13.16591873</MEAN_MOTION><ECCENTRICITY>.0001675</ECCENTRICITY><INCLINATION>87.9076</INCLINATION><RA_OF_ASC_NODE>342.6221</RA_OF_ASC_NODE><ARG_OF_PERICENTER>104.8623</ARG_OF_PERICENTER><MEAN_ANOMALY>255.2693</MEAN_ANOMALY></meanElements><tleParameters><EPHEMERIS_TYPE>0</EPHEMERIS_TYPE><CLASSIFICATION_TYPE>U</CLASSIFICATION_TYPE><NORAD_CAT_ID>56722</NORAD_CAT_ID><ELEMENT_SET_NO>999</ELEMENT_SET_NO><REV_AT_EPOCH>7655</REV_AT_EPOCH><BSTAR>.26125E-3</BSTAR><MEAN_MOTION_DOT>.113E-5</MEAN_MOTION_DOT><MEAN_MOTION_DDOT>0</MEAN_MOTION_DDOT></tleParameters></data></segment></body></omm>
<omm id="CCSDS_OMM_VERS" version="2.0">
<header><CREATION_DATE/><ORIGINATOR/></header><body><segment><metadata><OBJECT_NAME>ONEWEB-0696</OBJECT_NAME><OBJECT_ID>2023-068P</OBJECT_ID><CENTER_NAME>EARTH</CENTER_NAME><REF_FRAME>TEME</REF_FRAME><TIME_SYSTEM>UTC</TIME_SYSTEM><MEAN_ELEMENT_THEORY>SGP4</MEAN_ELEMENT_THEORY></metadata><data><meanElements><EPOCH>2024-11-22T18:05:41.561664</EPOCH><MEAN_MOTION>13.15545477</MEAN_MOTION><ECCENTRICITY>.0002014</ECCENTRICITY><INCLINATION>87.9098</INCLINATION><RA_OF_ASC_NODE>12.9883</RA_OF_ASC_NODE><ARG_OF_PERICENTER>90.5756</ARG_OF_PERICENTER><MEAN_ANOMALY>269.5605</MEAN_ANOMALY></meanElements><tleParameters><EPHEMERIS_TYPE>0</EPHEMERIS_TYPE><CLASSIFICATION_TYPE>U</CLASSIFICATION_TYPE><NORAD_CAT_ID>56723</NORAD_CAT_ID><ELEMENT_SET_NO>999</ELEMENT_SET_NO><REV_AT_EPOCH>7423</REV_AT_EPOCH><BSTAR>-.29277E-3</BSTAR><MEAN_MOTION_DOT>-.97E-6</MEAN_MOTION_DOT><MEAN_MOTION_DDOT>0</MEAN_MOTION_DDOT></tleParameters></data></segment></body></omm>
<omm id="CCSDS_OMM_VERS" version="2.0">
<header><CREATION_DATE/><ORIGINATOR/></header><body><segment><metadata><OBJECT_NAME>ONEWEB-0703</OBJECT_NAME><OBJECT_ID>2023-068Q</OBJECT_ID><CENTER_NAME>EARTH</CENTER_NAME><REF_FRAME>TEME</REF_FRAME><TIME_SYSTEM>UTC</TIME_SYSTEM><MEAN_ELEMENT_THEORY>SGP4</MEAN_ELEMENT_THEORY></metadata><data><meanElements><EPOCH>2024-11-22T12:50:49.183872</EPOCH><MEAN_MOTION>13.15546277</MEAN_MOTION><ECCENTRICITY>.0002805</ECCENTRICITY><INCLINATION>87.9103</INCLINATION><RA_OF_ASC_NODE>13.0530</RA_OF_ASC_NODE><ARG_OF_PERICENTER>76.3663</ARG_OF_PERICENTER><MEAN_ANOMALY>283.7780</MEAN_ANOMALY></meanElements><tleParameters><EPHEMERIS_TYPE>0</EPHEMERIS_TYPE><CLASSIFICATION_TYPE>U</CLASSIFICATION_TYPE><NORAD_CAT_ID>56724</NORAD_CAT_ID><ELEMENT_SET_NO>999</ELEMENT_SET_NO><REV_AT_EPOCH>7409</REV_AT_EPOCH><BSTAR>.81448E-4</BSTAR><MEAN_MOTION_DOT>.43E-6</MEAN_MOTION_DOT><MEAN_MOTION_DDOT>0</MEAN_MOTION_DDOT></tleParameters></data></segment></body></omm>
<omm id="CCSDS_OMM_VERS" version="2.0">
<header><CREATION_DATE/><ORIGINATOR/></header><body><segment><metadata><OBJECT_NAME>ONEWEB-0721</OBJECT_NAME><OBJECT_ID>2023-068R</OBJECT_ID><CENTER_NAME>EARTH</CENTER_NAME><REF_FRAME>TEME</REF_FRAME><TIME_SYSTEM>UTC</TIME_SYSTEM><MEAN_ELEMENT_THEORY>SGP4</MEAN_ELEMENT_THEORY></metadata><data><meanElements><EPOCH>2024-11-23T12:00:00.999648</EPOCH><MEAN_MOTION>14.27372858</MEAN_MOTION><ECCENTRICITY>.0010715</ECCENTRICITY><INCLINATION>86.6738</INCLINATION><RA_OF_ASC_NODE>270.1449</RA_OF_ASC_NODE><ARG_OF_PERICENTER>70.0353</ARG_OF_PERICENTER><MEAN_ANOMALY>14.3157</MEAN_ANOMALY></meanElements><tleParameters><EPHEMERIS_TYPE>0</EPHEMERIS_TYPE><CLASSIFICATION_TYPE>U</CLASSIFICATION_TYPE><NORAD_CAT_ID>56725</NORAD_CAT_ID><ELEMENT_SET_NO>999</ELEMENT_SET_NO><REV_AT_EPOCH>8274</REV_AT_EPOCH><BSTAR>-.38415E+0</BSTAR><MEAN_MOTION_DOT>-.888852E-2</MEAN_MOTION_DOT><MEAN_MOTION_DDOT>0</MEAN_MOTION_DDOT></tleParameters></data></segment></body></omm>
<omm id="CCSDS_OMM_VERS" version="2.0">
<header><CREATION_DATE/><ORIGINATOR/></header><body><segment><metadata><OBJECT_NAME>ONEWEB-0015</OBJECT_NAME><OBJECT_ID>2024-188A</OBJECT_ID><CENTER_NAME>EARTH</CENTER_NAME><REF_FRAME>TEME</REF_FRAME><TIME_SYSTEM>UTC</TIME_SYSTEM><MEAN_ELEMENT_THEORY>SGP4</MEAN_ELEMENT_THEORY></metadata><data><meanElements><EPOCH>2024-11-22T12:21:54.151776</EPOCH><MEAN_MOTION>14.83093048</MEAN_MOTION><ECCENTRICITY>.000717</ECCENTRICITY><INCLINATION>86.5756</INCLINATION><RA_OF_ASC_NODE>156.2063</RA_OF_ASC_NODE><ARG_OF_PERICENTER>100.7824</ARG_OF_PERICENTER><MEAN_ANOMALY>259.4206</MEAN_ANOMALY></meanElements><tleParameters><EPHEMERIS_TYPE>0</EPHEMERIS_TYPE><CLASSIFICATION_TYPE>U</CLASSIFICATION_TYPE><NORAD_CAT_ID>61594</NORAD_CAT_ID><ELEMENT_SET_NO>999</ELEMENT_SET_NO><REV_AT_EPOCH>790</REV_AT_EPOCH><BSTAR>.29365E-3</BSTAR><MEAN_MOTION_DOT>.2417E-4</MEAN_MOTION_DOT><MEAN_MOTION_DDOT>0</MEAN_MOTION_DDOT></tleParameters></data></segment></body></omm>

</ndm>
