ONEWEB-0683             
1 56719U 23068K   24327.71276130 -.00000011  00000+0 -64055-4 0  9999
2 56719  87.9096  12.9455 0001709 107.0771 253.0546 13.15545992 74285
ONEWEB-0684             
1 56720U 23068L   24327.56857870  .00000044  00000+0  81972-4 0  9991
2 56720  87.9068  13.0436 0001711  50.4651 309.6630 13.15546531 74099
ONEWEB-0686             
1 56721U 23068M   24327.59455575  .00000057  00000+0  11503-3 0  9997
2 56721  87.9081 342.6953 0001458  96.7265 263.4032 13.16593688 76509
ONEWEB-0694             
1 56722U 23068N   24327.56124984  .00000113  00000+0  26125-3 0  9991
2 56722  87.9076 342.6221 0001675 104.8623 255.2693 13.16591873 76553
ONEWEB-0696             
1 56723U 23068P   24327.75395326 -.00000097  00000+0 -29277-3 0  9997
2 56723  87.9098  12.9883 0002014  90.5756 269.5605 13.15545477 74237
ONEWEB-0703             
1 56724U 23068Q   24327.53529148  .00000043  00000+0  81448-4 0  9993
2 56724  87.9103  13.0530 0002805  76.3663 283.7780 13.15546277 74098
ONEWEB-0721             
1 56725U 23068R   24328.50001157 -.00888852  00000+0 -38415+0 0  9992
2 56725  86.6738 270.1449 0010715  70.0353  14.3157 14.27372858 82743
ONEWEB-0015             
1 61594U 24188A   24327.51521009  .00002417  00000+0  29365-3 0  9990
2 61594  86.5756 156.2063 0007170 100.7824 259.4206 14.83093048  7908
